IRIDIUM 112             
1 41925U 17003J   24092.46992947  .00000487  00000+0  16683-3 0  9994
2 41925  86.3938  65.4320 0002057  92.2325 267.9106 14.34218961377644
IRIDIUM 111             
1 41926U 17003K   24092.45723288  .00000070  00000+0  17833-4 0  9991
2 41926  86.3940  65.4901 0002364  94.0757 266.0709 14.34213739377628
IRIDIUM 113             
1 42803U 17039A   24092.57674842  .00000096  00000+0  27096-4 0  9999
2 42803  86.3929 299.2357 0002152  93.5119 266.6323 14.34213145355572
IRIDIUM 123             
1 42804U 17039B   24092.40892595  .00000381  00000+0  12893-3 0  9994
2 42804  86.3985 330.8133 0002216  90.5606 269.5844 14.34218024354310
IRIDIUM 120             
1 42805U 17039C   24092.57042967  .00000135  00000+0  41236-4 0  9994
2 42805  86.3919 299.1253 0002152  86.7579 273.3863 14.34212977355566
IRIDIUM 115             
1 42806U 17039D   24092.59286749  .00000174  00000+0  45776-4 0  9991
2 42806  86.4457 299.1292 0002164  94.0495 266.0953 14.43276976357920
IRIDIUM 118             
1 42807U 17039E   24092.58018088  .00000393  00000+0  13330-3 0  9993
2 42807  86.3986 330.7433 0002048  86.6176 273.5254 14.34216685354330
IRIDIUM 117             
1 42808U 17039F   24092.59919805  .00000146  00000+0  45231-4 0  9994
2 42808  86.3986 330.7005 0002354  89.0749 271.0716 14.34216049354362
